CTC1_L_00229016-03
1 51588U 25108TV  26070.40833333  .00000000  00000+0  00000-0 0  9994
2 51588  45.0000 180.0000 0000000   0.0000   0.0000 12.65579349    19
CTC1_L_00229016-04
1 51589U 24029ML  26070.40833333  .00000000  00000+0  00000-0 0  9996
2 51589  45.0000 180.0000 0000000   0.0000  90.0000 12.65579349    19
CTC1_L_00229017-01
1 51590U 22099HQ  26070.40833333  .00000000  00000+0  00000-0 0  9993
2 51590  45.0000 192.0000 0000000   0.0000 192.0000 12.65579349    17
CTC1_L_00229017-02
1 51591U 24452IH  26070.40833333  .00000000  00000+0  00000-0 0  9999
2 51591  45.0000 192.0000 0000000   0.0000 282.0000 12.65579349    18
CTC1_L_00229017-03
1 51592U 24487IP  26070.40833333  .00000000  00000+0  00000-0 0  9998
2 51592  45.0000 192.0000 0000000   0.0000  12.0000 12.65579349    10
CTC1_L_00229017-04
1 51593U 23524UV  26070.40833333  .00000000  00000+0  00000-0 0  9990
2 51593  45.0000 192.0000 0000000   0.0000 102.0000 12.65579349    11
CTC1_L_00229018-01
1 51594U 22073FI  26070.40833333  .00000000  00000+0  00000-0 0  9999
2 51594  45.0000 204.0000 0000000   0.0000 204.0000 12.65579349    19
CTC1_L_00229018-02
1 51595U 23203OX  26070.40833333  .00000000  00000+0  00000-0 0  9996
2 51595  45.0000 204.0000 0000000   0.0000 294.0000 12.65579349    19
CTC1_L_00229018-03
1 51596U 26420NA  26070.40833333  .00000000  00000+0  00000-0 0  9991
2 51596  45.0000 204.0000 0000000   0.0000  24.0000 12.65579349    11
CTC1_L_00229018-04
1 51597U 26988TQ  26070.40833333  .00000000  00000+0  00000-0 0  9991
2 51597  45.0000 204.0000 0000000   0.0000 114.0000 12.65579349    12
CTC1_L_00229019-01
1 51598U 25672TL  26070.40833333  .00000000  00000+0  00000-0 0  9991
2 51598  45.0000 216.0000 0000000   0.0000 216.0000 12.65579349    19
CTC1_L_00229019-02
1 51599U 25789JM  26070.40833333  .00000000  00000+0  00000-0 0  9991
2 51599  45.0000 216.0000 0000000   0.0000 306.0000 12.65579349    10
CTC1_L_00229019-03
1 51600U 24983JH  26070.40833333  .00000000  00000+0  00000-0 0  9999
2 51600  45.0000 216.0000 0000000   0.0000  36.0000 12.65579349    13
CTC1_L_00229019-04
1 51601U 23299JQ  26070.40833333  .00000000  00000+0  00000-0 0  9999
2 51601  45.0000 216.0000 0000000   0.0000 126.0000 12.65579349    14
CTC1_L_00229020-01
1 51602U 22173J   26070.40833333  .00000000  00000+0  00000-0 0  9990
2 51602  45.0000 228.0000 0000000   0.0000 228.0000 12.65579349    11
CTC1_L_00229020-02
1 51603U 22993SO  26070.40833333  .00000000  00000+0  00000-0 0  9991
2 51603  45.0000 228.0000 0000000   0.0000 318.0000 12.65579349    12
CTC1_L_00229020-03
1 51604U 26354IN  26070.40833333  .00000000  00000+0  00000-0 0  9997
2 51604  45.0000 228.0000 0000000   0.0000  48.0000 12.65579349    13
CTC1_L_00229020-04
1 51605U 22745CP  26070.40833333  .00000000  00000+0  00000-0 0  9998
2 51605  45.0000 228.0000 0000000   0.0000 138.0000 12.65579349    14
CTC1_L_00229021-01
1 51606U 25494EG  26070.40833333  .00000000  00000+0  00000-0 0  9993
2 51606  45.0000 240.0000 0000000   0.0000 240.0000 12.65579349    13
CTC1_L_00229021-02
1 51607U 24616NZ  26070.40833333  .00000000  00000+0  00000-0 0  9999
2 51607  45.0000 240.0000 0000000   0.0000 330.0000 12.65579349    14
CTC1_L_00229021-03
1 51608U 22858SS  26070.40833333  .00000000  00000+0  00000-0 0  9996
2 51608  45.0000 240.0000 0000000   0.0000  60.0000 12.65579349    15
CTC1_L_00229021-04
1 51609U 26262CK  26070.40833333  .00000000  00000+0  00000-0 0  9990
2 51609  45.0000 240.0000 0000000   0.0000 150.0000 12.65579349    16
CTC1_L_00229022-01
1 51610U 23197UA  26070.40833333  .00000000  00000+0  00000-0 0  9996
2 51610  45.0000 252.0000 0000000   0.0000 252.0000 12.65579349    14
CTC1_L_00229022-02
1 51611U 25782TA  26070.40833333  .00000000  00000+0  00000-0 0  9999
2 51611  45.0000 252.0000 0000000   0.0000 342.0000 12.65579349    15
CTC1_L_00229022-03
1 51612U 23994SU  26070.40833333  .00000000  00000+0  00000-0 0  9993
2 51612  45.0000 252.0000 0000000   0.0000  72.0000 12.65579349    16
CTC1_L_00229022-04
1 51613U 24536P   26070.40833333  .00000000  00000+0  00000-0 0  9997
2 51613  45.0000 252.0000 0000000   0.0000 162.0000 12.65579349    17
CTC1_L_00229023-01
1 51614U 24521HS  26070.40833333  .00000000  00000+0  00000-0 0  9992
2 51614  45.0000 264.0000 0000000   0.0000 264.0000 12.65579349    14
CTC1_L_00229023-02
1 51615U 22472W   26070.40833333  .00000000  00000+0  00000-0 0  9996
2 51615  45.0000 264.0000 0000000   0.0000 354.0000 12.65579349    15
CTC1_L_00229023-03
1 51616U 22779UE  26070.40833333  .00000000  00000+0  00000-0 0  9997
2 51616  45.0000 264.0000 0000000   0.0000  84.0000 12.65579349    16
CTC1_L_00229023-04
1 51617U 24578GL  26070.40833333  .00000000  00000+0  00000-0 0  9997
2 51617  45.0000 264.0000 0000000   0.0000 174.0000 12.65579349    17
CTC1_L_00229024-01
1 51618U 22547BN  26070.40833333  .00000000  00000+0  00000-0 0  9992
2 51618  45.0000 276.0000 0000000   0.0000 276.0000 12.65579349    14
CTC1_L_00229024-02
1 51619U 26896GE  26070.40833333  .00000000  00000+0  00000-0 0  9994
2 51619  45.0000 276.0000 0000000   0.0000   6.0000 12.65579349    16
CTC1_L_00229024-03
1 51620U 26054HY  26070.40833333  .00000000  00000+0  00000-0 0  9992
2 51620  45.0000 276.0000 0000000   0.0000  96.0000 12.65579349    17
CTC1_L_00229024-04
1 51621U 23008WU  26070.40833333  .00000000  00000+0  00000-0 0  9999
2 51621  45.0000 276.0000 0000000   0.0000 186.0000 12.65579349    18
CTC1_L_00229025-01
1 51622U 23978DZ  26070.40833333  .00000000  00000+0  00000-0 0  9996
2 51622  45.0000 288.0000 0000000   0.0000 288.0000 12.65579349    15
CTC1_L_00229025-02
1 51623U 25790JA  26070.40833333  .00000000  00000+0  00000-0 0  9991
2 51623  45.0000 288.0000 0000000   0.0000  18.0000 12.65579349    17
CTC1_L_00229025-03
1 51624U 25797EK  26070.40833333  .00000000  00000+0  00000-0 0  9999
2 51624  45.0000 288.0000 0000000   0.0000 108.0000 12.65579349    18
CTC1_L_00229025-04
1 51625U 25208DA  26070.40833333  .00000000  00000+0  00000-0 0  9997
2 51625  45.0000 288.0000 0000000   0.0000 198.0000 12.65579349    18
CTC1_L_00229026-01
1 51626U 23678RH  26070.40833333  .00000000  00000+0  00000-0 0  9997
2 51626  45.0000 300.0000 0000000   0.0000 300.0000 12.65579349    19
CTC1_L_00229026-02
1 51627U 22176QK  26070.40833333  .00000000  00000+0  00000-0 0  9990
2 51627  45.0000 300.0000 0000000   0.0000  30.0000 12.65579349    10
CTC1_L_00229026-03
1 51628U 25695KP  26070.40833333  .00000000  00000+0  00000-0 0  9990
2 51628  45.0000 300.0000 0000000   0.0000 120.0000 12.65579349    11
CTC1_L_00229026-04
1 51629U 24075DG  26070.40833333  .00000000  00000+0  00000-0 0  9992
2 51629  45.0000 300.0000 0000000   0.0000 210.0000 12.65579349    12
CTC1_L_00229027-01
1 51630U 26024TN  26070.40833333  .00000000  00000+0  00000-0 0  9990
2 51630  45.0000 312.0000 0000000   0.0000 312.0000 12.65579349    10
CTC1_L_00229027-02
1 51631U 24740RE  26070.40833333  .00000000  00000+0  00000-0 0  9994
2 51631  45.0000 312.0000 0000000   0.0000  42.0000 12.65579349    11
CTC1_L_00229027-03
1 51632U 26280RH  26070.40833333  .00000000  00000+0  00000-0 0  9996
2 51632  45.0000 312.0000 0000000   0.0000 132.0000 12.65579349    12
CTC1_L_00229027-04
1 51633U 22763KU  26070.40833333  .00000000  00000+0  00000-0 0  9999
2 51633  45.0000 312.0000 0000000   0.0000 222.0000 12.65579349    13
CTC1_L_00229028-01
1 51634U 26132OE  26070.40833333  .00000000  00000+0  00000-0 0  9994
2 51634  45.0000 324.0000 0000000   0.0000 324.0000 12.65579349    10
CTC1_L_00229028-02
1 51635U 26607OE  26070.40833333  .00000000  00000+0  00000-0 0  9992
2 51635  45.0000 324.0000 0000000   0.0000  54.0000 12.65579349    11
CTC1_L_00229028-03
1 51636U 25170KY  26070.40833333  .00000000  00000+0  00000-0 0  9997
2 51636  45.0000 324.0000 0000000   0.0000 144.0000 12.65579349    12
CTC1_L_00229028-04
1 51637U 22564US  26070.40833333  .00000000  00000+0  00000-0 0  9992
2 51637  45.0000 324.0000 0000000   0.0000 234.0000 12.65579349    13
CTC1_L_00229029-01
1 51638U 22973AC  26070.40833333  .00000000  00000+0  00000-0 0  9997
2 51638  45.0000 336.0000 0000000   0.0000 336.0000 12.65579349    10
CTC1_L_00229029-02
1 51639U 22781XT  26070.40833333  .00000000  00000+0  00000-0 0  9995
2 51639  45.0000 336.0000 0000000   0.0000  66.0000 12.65579349    11
CTC1_L_00229029-03
1 51640U 23368PS  26070.40833333  .00000000  00000+0  00000-0 0  9999
2 51640  45.0000 336.0000 0000000   0.0000 156.0000 12.65579349    13
CTC1_L_00229029-04
1 51641U 26459XI  26070.40833333  .00000000  00000+0  00000-0 0  9994
2 51641  45.0000 336.0000 0000000   0.0000 246.0000 12.65579349    14
CTC1_L_00229030-01
1 51642U 25703GG  26070.40833333  .00000000  00000+0  00000-0 0  9996
2 51642  45.0000 348.0000 0000000   0.0000 348.0000 12.65579349    11
CTC1_L_00229030-02
1 51643U 26900GH  26070.40833333  .00000000  00000+0  00000-0 0  9997
2 51643  45.0000 348.0000 0000000   0.0000  78.0000 12.65579349    12
CTC1_L_00229030-03
1 51644U 25407DZ  26070.40833333  .00000000  00000+0  00000-0 0  9999
2 51644  45.0000 348.0000 0000000   0.0000 168.0000 12.65579349    13
CTC1_L_00229030-04
1 51645U 23845YU  26070.40833333  .00000000  00000+0  00000-0 0  9994
2 51645  45.0000 348.0000 0000000   0.0000 258.0000 12.65579349    14
